{"type": "FeatureCollection", "features": [ {"type": "Feature", "properties": {"norad_id": 44804, "name": "CARTOSAT-3", "group": "resource", "lat": 3.3846072879212024, "lon": 58.386261276519974, "alt_km": 503.5231957685646, "timestamp": "2025-12-25T09:48:51.944018+00:00", "meta": {"OBJECT_NAME": "CARTOSAT-3", "OBJECT_ID": "2019-081A", "EPOCH": "2025-12-25T05:03:26.252928", "MEAN_MOTION": 15.1925446, "ECCENTRICITY": 0.0013637, "INCLINATION": 97.4564, "RA_OF_ASC_NODE": 58.6344, "ARG_OF_PERICENTER": 44.2291, "MEAN_ANOMALY": 316.0031, "EPHEMERIS_TYPE": 0, "CLASSIFICATION_TYPE": "U", "NORAD_CAT_ID": 44804, "ELEMENT_SET_NO": 999, "REV_AT_EPOCH": 33705, "BSTAR": 0.00015683, "MEAN_MOTION_DOT": 3.244e-05, "MEAN_MOTION_DDOT": 0}, "tle": {"line1": "1 44804U 19081A   25359.21072052  .00003244  00000+0  15683-3 0  9990", "line2": "2 44804  97.4564  58.6344 0013637  44.2291 316.0031 15.19254460337058"}}, "geometry": {"type": "Point", "coordinates": [58.386261276519974, 3.3846072879212024]}}, {"type": "Feature", "properties": {"norad_id": 44819, "name": "GAOFEN-12 01", "group": "resource", "lat": 27.160145104092464, "lon": -170.60332513036937, "alt_km": 624.7549585731886, "timestamp": "2025-12-25T09:48:51.944028+00:00", "meta": {"OBJECT_NAME": "GAOFEN-12 01", "OBJECT_ID": "2019-082A", "EPOCH": "2025-12-25T04:15:44.743680", "MEAN_MOTION": 14.80671342, "ECCENTRICITY": 0.0002218, "INCLINATION": 97.8125, "RA_OF_ASC_NODE": 5.1321, "ARG_OF_PERICENTER": 178.417, "MEAN_ANOMALY": 181.705, "EPHEMERIS_TYPE": 0, "CLASSIFICATION_TYPE": "U", "NORAD_CAT_ID": 44819, "ELEMENT_SET_NO": 999, "REV_AT_EPOCH": 32834, "BSTAR": 7.1775e-05, "MEAN_MOTION_DOT": 5.01e-06, "MEAN_MOTION_DDOT": 0}, "tle": {"line1": "1 44819U 19082A   25359.17760120  .00000501  00000+0  71775-4 0  9990", "line2": "2 44819  97.8125   5.1321 0002218 178.4170 181.7050 14.80671342328341"}}, "geometry": {"type": "Point", "coordinates": [-170.60332513036937, 27.160145104092464]}}, {"type": "Feature", "properties": {"norad_id": 44873, "name": "CSG-1", "group": "resource", "lat": -28.489980408229368, "lon": -175.1467283937023, "alt_km": 628.7843196830181, "timestamp": "2025-12-25T09:48:51.944038+00:00", "meta": {"OBJECT_NAME": "CSG-1", "OBJECT_ID": "2019-092A", "EPOCH": "2025-12-25T03:27:46.993824", "MEAN_MOTION": 14.8216069, "ECCENTRICITY": 0.0001472, "INCLINATION": 97.8805, "RA_OF_ASC_NODE": 180.2816, "ARG_OF_PERICENTER": 84.6197, "MEAN_ANOMALY": 275.5184, "EPHEMERIS_TYPE": 0, "CLASSIFICATION_TYPE": "U", "NORAD_CAT_ID": 44873, "ELEMENT_SET_NO": 999, "REV_AT_EPOCH": 32569, "BSTAR": 8.4394e-05, "MEAN_MOTION_DOT": 6.2e-06, "MEAN_MOTION_DDOT": 0}, "tle": {"line1": "1 44873U 19092A   25359.14429391  .00000620  00000+0  84394-4 0  9993", "line2": "2 44873  97.8805 180.2816 0001472  84.6197 275.5184 14.82160690325694"}}, "geometry": {"type": "Point", "coordinates": [-175.1467283937023, -28.489980408229368]}}, {"type": "Feature", "properties": {"norad_id": 46277, "name": "NEMO-HD", "group": "resource", "lat": -80.93100638712824, "lon": -174.22387464096167, "alt_km": 452.3641724843483, "timestamp": "2025-12-25T09:48:51.944048+00:00", "meta": {"OBJECT_NAME": "NEMO-HD", "OBJECT_ID": "2020-061F", "EPOCH": "2025-12-25T03:59:35.073888", "MEAN_MOTION": 15.40578878, "ECCENTRICITY": 0.0001057, "INCLINATION": 97.2188, "RA_OF_ASC_NODE": 58.1065, "ARG_OF_PERICENTER": 52.8897, "MEAN_ANOMALY": 307.2446, "EPHEMERIS_TYPE": 0, "CLASSIFICATION_TYPE": "U", "NORAD_CAT_ID": 46277, "ELEMENT_SET_NO": 999, "REV_AT_EPOCH": 29515, "BSTAR": 0.00028495, "MEAN_MOTION_DOT": 0.00011509, "MEAN_MOTION_DDOT": 0}, "tle": {"line1": "1 46277U 20061F   25359.16637817  .00011509  00000+0  28495-3 0  9994", "line2": "2 46277  97.2188  58.1065 0001057  52.8897 307.2446 15.40578878295151"}}, "geometry": {"type": "Point", "coordinates": [-174.22387464096167, -80.93100638712824]}}, {"type": "Feature", "properties": {"norad_id": 46984, "name": "SENTINEL-6A", "group": "resource", "lat": -14.156391654685244, "lon": -37.56652151463448, "alt_km": 1339.6103031729808, "timestamp": "2025-12-25T09:48:51.944058+00:00", "meta": {"OBJECT_NAME": "SENTINEL-6A", "OBJECT_ID": "2020-086A", "EPOCH": "2025-12-24T15:55:56.858592", "MEAN_MOTION": 12.80930713, "ECCENTRICITY": 0.00077606, "INCLINATION": 66.0399, "RA_OF_ASC_NODE": 137.5413, "ARG_OF_PERICENTER": 269.4223, "MEAN_ANOMALY": 90.5903, "EPHEMERIS_TYPE": 0, "CLASSIFICATION_TYPE": "U", "NORAD_CAT_ID": 46984, "ELEMENT_SET_NO": 999, "REV_AT_EPOCH": 23797, "BSTAR": -9.062628e-06, "MEAN_MOTION_DOT": -6.3e-07, "MEAN_MOTION_DDOT": 0}, "tle": {"line1": "1 46984U 20086A   25358.66385253 -.00000063  00000+0 -90626-5 0  9996", "line2": "2 46984  66.0399 137.5413 0007760 269.4223  90.5903 12.80930713237976"}}, "geometry": {"type": "Point", "coordinates": [-37.56652151463448, -14.156391654685244]}}, {"type": "Feature", "properties": {"norad_id": 48079, "name": "GAOFEN-12 02", "group": "resource", "lat": 14.92922919591327, "lon": 175.49964012901196, "alt_km": 628.0168738987595, "timestamp": "2025-12-25T09:48:51.944068+00:00", "meta": {"OBJECT_NAME": "GAOFEN-12 02", "OBJECT_ID": "2021-026A", "EPOCH": "2025-12-24T23:20:30.266592", "MEAN_MOTION": 14.80689149, "ECCENTRICITY": 0.00035513, "INCLINATION": 97.9857, "RA_OF_ASC_NODE": 352.9203, "ARG_OF_PERICENTER": 76.5559, "MEAN_ANOMALY": 283.6049, "EPHEMERIS_TYPE": 0, "CLASSIFICATION_TYPE": "U", "NORAD_CAT_ID": 48079, "ELEMENT_SET_NO": 999, "REV_AT_EPOCH": 25598, "BSTAR": 7.4383973e-05, "MEAN_MOTION_DOT": 5.19e-06, "MEAN_MOTION_DDOT": 0}, "tle": {"line1": "1 48079U 21026A   25358.97257253  .00000519  00000+0  74384-4 0  9996", "line2": "2 48079  97.9857 352.9203 0003551  76.5559 283.6049 14.80689149255981"}}, "geometry": {"type": "Point", "coordinates": [175.49964012901196, 14.92922919591327]}}, {"type": "Feature", "properties": {"norad_id": 48268, "name": "PLEIADES NEO 3", "group": "resource", "lat": -79.64096118990075, "lon": 121.05004792988026, "alt_km": 632.3164129225479, "timestamp": "2025-12-25T09:48:51.944078+00:00", "meta": {"OBJECT_NAME": "PLEIADES NEO 3", "OBJECT_ID": "2021-034A", "EPOCH": "2025-12-25T05:19:39.186048", "MEAN_MOTION": 14.81672236, "ECCENTRICITY": 0.0001322, "INCLINATION": 97.8943, "RA_OF_ASC_NODE": 71.484, "ARG_OF_PERICENTER": 89.3525, "MEAN_ANOMALY": 270.784, "EPHEMERIS_TYPE": 0, "CLASSIFICATION_TYPE": "U", "NORAD_CAT_ID": 48268, "ELEMENT_SET_NO": 999, "REV_AT_EPOCH": 25189, "BSTAR": -2.731e-05, "MEAN_MOTION_DOT": -2.67e-06, "MEAN_MOTION_DDOT": 0}, "tle": {"line1": "1 48268U 21034A   25359.22198132 -.00000267  00000+0 -27310-4 0  9993", "line2": "2 48268  97.8943  71.4840 0001322  89.3525 270.7840 14.81672236251897"}}, "geometry": {"type": "Point", "coordinates": [121.05004792988026, -79.64096118990075]}}, {"type": "Feature", "properties": {"norad_id": 49070, "name": "PLEIADES NEO 4", "group": "resource", "lat": 79.57688669025787, "lon": -59.36628960116107, "alt_km": 615.8087648397504, "timestamp": "2025-12-25T09:48:51.944091+00:00", "meta": {"OBJECT_NAME": "PLEIADES NEO 4", "OBJECT_ID": "2021-073E", "EPOCH": "2025-12-25T02:53:45.901824", "MEAN_MOTION": 14.8167404, "ECCENTRICITY": 0.0001236, "INCLINATION": 97.895, "RA_OF_ASC_NODE": 71.3799, "ARG_OF_PERICENTER": 95.5277, "MEAN_ANOMALY": 264.6077, "EPHEMERIS_TYPE": 0, "CLASSIFICATION_TYPE": "U", "NORAD_CAT_ID": 49070, "ELEMENT_SET_NO": 999, "REV_AT_EPOCH": 23559, "BSTAR": -2.322e-05, "MEAN_MOTION_DOT": -2.35e-06, "MEAN_MOTION_DDOT": 0}, "tle": {"line1": "1 49070U 21073E   25359.12067016 -.00000235  00000+0 -23220-4 0  9994", "line2": "2 49070  97.8950  71.3799 0001236  95.5277 264.6077 14.81674040235594"}}, "geometry": {"type": "Point", "coordinates": [-59.36628960116107, 79.57688669025787]}}, {"type": "Feature", "properties": {"norad_id": 49260, "name": "LANDSAT 9", "group": "resource", "lat": 72.78105985951642, "lon": 39.57775183794343, "alt_km": 694.7634539465134, "timestamp": "2025-12-25T09:48:51.944101+00:00", "meta": {"OBJECT_NAME": "LANDSAT 9", "OBJECT_ID": "2021-088A", "EPOCH": "2025-12-24T18:38:23.131104", "MEAN_MOTION": 14.57109853, "ECCENTRICITY": 0.00011162, "INCLINATION": 98.2078, "RA_OF_ASC_NODE": 66.7123, "ARG_OF_PERICENTER": 93.3243, "MEAN_ANOMALY": 266.8083, "EPHEMERIS_TYPE": 0, "CLASSIFICATION_TYPE": "U", "NORAD_CAT_ID": 49260, "ELEMENT_SET_NO": 999, "REV_AT_EPOCH": 22560, "BSTAR": 0.00010507597, "MEAN_MOTION_DOT": 4.28e-06, "MEAN_MOTION_DDOT": 0}, "tle": {"line1": "1 49260U 21088A   25358.77665661  .00000428  00000+0  10508-3 0  9997", "line2": "2 49260  98.2078  66.7123 0001116  93.3243 266.8083 14.57109853225606"}}, "geometry": {"type": "Point", "coordinates": [39.57775183794343, 72.78105985951642]}}, {"type": "Feature", "properties": {"norad_id": 51444, "name": "CSG-2", "group": "resource", "lat": 28.27364533661005, "lon": 4.8130899621961385, "alt_km": 620.9820479643668, "timestamp": "2025-12-25T09:48:51.944111+00:00", "meta": {"OBJECT_NAME": "CSG-2", "OBJECT_ID": "2022-008A", "EPOCH": "2025-12-24T23:24:45.029952", "MEAN_MOTION": 14.82154748, "ECCENTRICITY": 0.00014619, "INCLINATION": 97.8803, "RA_OF_ASC_NODE": 180.1142, "ARG_OF_PERICENTER": 81.2598, "MEAN_ANOMALY": 278.8781, "EPHEMERIS_TYPE": 0, "CLASSIFICATION_TYPE": "U", "NORAD_CAT_ID": 51444, "ELEMENT_SET_NO": 999, "REV_AT_EPOCH": 21078, "BSTAR": 2.5784814e-05, "MEAN_MOTION_DOT": 1.53e-06, "MEAN_MOTION_DDOT": 0}, "tle": {"line1": "1 51444U 22008A   25358.97552118  .00000153  00000+0  25785-4 0  9990", "line2": "2 51444  97.8803 180.1142 0001461  81.2598 278.8781 14.82154748210780"}}, "geometry": {"type": "Point", "coordinates": [4.8130899621961385, 28.27364533661005]}}]}